ION SCV-017             
1 63230U 25052W   26068.71648816  .00006457  00000+0  24539-3 0  9998
2 63230  97.4016 324.7516 0023746  44.9875 315.3282 15.26881798 54851
STARLINK-34892          
1 65350U 25189AD  26068.65268179  .00034458  00000+0  11708-2 0  9992
2 65350  53.1593 206.7315 0000940  90.7848 269.3260 15.30181212 31051
